[{"OBJECT_NAME":"SWAS","OBJECT_ID":"1998-071A","EPOCH":"2026-03-09T12:50:12.826752","MEAN_MOTION":15.08888192,"ECCENTRICITY":0.00040991,"INCLINATION":69.8952,"RA_OF_ASC_NODE":124.3662,"ARG_OF_PERICENTER":14.3215,"MEAN_ANOMALY":345.8065,"EPHEMERIS_TYPE":0,"CLASSIFICATION_TYPE":"U","NORAD_CAT_ID":25560,"ELEMENT_SET_NO":999,"REV_AT_EPOCH":48223,"BSTAR":0.00029986322,"MEAN_MOTION_DOT":4.636e-5,"MEAN_MOTION_DDOT":0},{"OBJECT_NAME":"STARLINK-3114","OBJECT_ID":"2021-104U","EPOCH":"2026-03-09T17:58:10.357536","MEAN_MOTION":15.08836725,"ECCENTRICITY":0.0001485,"INCLINATION":53.2177,"RA_OF_ASC_NODE":228.8579,"ARG_OF_PERICENTER":100.3258,"MEAN_ANOMALY":259.7902,"EPHEMERIS_TYPE":0,"CLASSIFICATION_TYPE":"U","NORAD_CAT_ID":49426,"ELEMENT_SET_NO":999,"REV_AT_EPOCH":23863,"BSTAR":2.1457878e-5,"MEAN_MOTION_DOT":5.4e-7,"MEAN_MOTION_DDOT":0}]
